"CCN","CODCNH","Nombre Centro","Dirección","Teléfono","Cód. Municipio","Municipio","Cód. Provincia","Provincia","Cód. CCAA","CCAA","Código Postal","CAMAS","Cód. Clase de Centro","Clase de Centro","Cód. Dep. Funcional","Dependencia Funcional","Forma parte Complejo","CODIDCOM","Nombre del Complejo","ALTA","Email","OBJECTID","NOMBRE","DIRECCION","TELEFONO","TELEFONO2","TELEFAX","CODMU","MUNICIPIOS","CODPROV","PROVINCIAS","CODAUTO","COMUNIDADES","CODPOSTAL","CODFI","FINALIDAD_ASISITENCIAL","CODPAT","DEPENDENCIA_PATRIMONIAL","CODFU","DEPENDENCIA_FUNCIONAL","ACREDOCENT","ESCOMPLE","FORCOMPLE","CERRADO","CAPITAL","CIERREFECH","CONCIERTO","EMAIL","TAC","RM","GAM","HEM","ASD","LIT","BCO","ALI","SPECT","PET","MAMOS","DO","DIAL","X","Y","CalidadGeocodificacion","id_area","nombre_area"
"1328020932","281371","HOSPITAL HM VALLES","CALLE SANTIAGO 14","918883262","280053","Alcalá de Henares","28","MADRID","13","MADRID","28801",20,"C190","Otros Centros con Internamiento","20","PRIVADOS","N",NA,NA,"N",NA,559,"HM VALLES","C/SANTIAGO, 14",917374353,NA,912805932,"280053","Alcalá de Henares","28","MADRID","13","MADRID","28801",16,"OTRA FINALIDAD",14,"PRIVADO NO BENÉFICO",23,"PRIVADO NO BENÉFICO","S","N","N","N","N",NA,"S","fgcalleja@hmhospitales.com; imarco@hmhospitales.com",1,1,1,0,0,0,0,0,0,0,1,1,0,-3.36737238499995,40.4830208560001,"PointAddress","03","Este"
"1328000034","280745","HOSPITAL UNIVERSITARIO PRINCIPE DE ASTURIAS","CARRETERA DE MECO S/N","918878100","280053","Alcalá de Henares","28","MADRID","13","MADRID","28805",507,"C11","Hospitales Generales","2","SERVICIOS E INSTITUTOS DE SALUD DE LAS COMUNIDADES AUTÓNOMAS","N",NA,NA,"N",NA,516,"HOSPITAL UNIVERSITARIO PRINCIPE DE ASTURIAS","CTRA. ALCALÁ-MECO, S/N",918878100,NA,918801825,"280053","Alcalá de Henares","28","MADRID","13","MADRID","28805",1,"GENERAL",1,"SEGURIDAD SOCIAL",34,"SERVICIO MADRILEÑO DE SALUD","S","N","N","N","N",NA,"N","gerent.hupa@salud.madrid.org",3,2,1,1,1,0,0,0,0,0,2,1,28,-3.34760208199998,40.51024934,"Manual","03","Este"
"1328000070","281124","HOSPITAL QUIRONSALUD SUR","CALLE DE ESTAMBUL 30","917810682","280072","Alcorcón","28","MADRID","13","MADRID","28922",81,"C11","Hospitales Generales","20","PRIVADOS","N",NA,NA,"N",NA,536,"HOSPITAL QUIRONSALUD SUR","ESTAMBUL, 30",916496600,NA,916496604,"280072","Alcorcón","28","MADRID","13","MADRID","28922",12,"MÉDICO-QUIRÚRGICO",14,"PRIVADO NO BENÉFICO",23,"PRIVADO NO BENÉFICO","N","N","N","N","N",NA,"S","monte.rodriguez@quironsalud.es",1,2,0,1,1,0,0,0,0,0,1,1,0,-3.84903466199995,40.342483708,"StreetAddress","08","Sur-Oeste I"
"1328000066","281071","HOSPITAL UNIVERSITARIO FUNDACION ALCORCON","CALLE BUDAPEST 1","916219400","280072","Alcorcón","28","MADRID","13","MADRID","28922",402,"C11","Hospitales Generales","2","SERVICIOS E INSTITUTOS DE SALUD DE LAS COMUNIDADES AUTÓNOMAS","N",NA,NA,"N","FHALCORCON@FHALCORCON.ES",532,"HOSPITAL UNIVERSITARIO FUNDACION ALCORCON","BUDAPEST, 1",916219400,NA,916219902,"280072","Alcorcón","28","MADRID","13","MADRID","28922",1,"GENERAL",1,"SEGURIDAD SOCIAL",34,"SERVICIO MADRILEÑO DE SALUD","S","N","N","N","N",NA,"N","direcciongerencia@fhalcorcon.es",2,2,1,1,1,1,0,0,0,0,2,1,28,-3.83739388799995,40.3488682720001,"Manual","08","Sur-Oeste I"
"1328000084","281292","HOSPITAL DEL TAJO S.A.","AVENIDA AMAZONAS CENTRAL S/N","918014100","280133","Aranjuez","28","MADRID","13","MADRID","28300",98,"C11","Hospitales Generales","2","SERVICIOS E INSTITUTOS DE SALUD DE LAS COMUNIDADES AUTÓNOMAS","N",NA,NA,"N",NA,551,"HOSPITAL UNIVERSITARIO DEL TAJO","AVDA. AMAZONAS CENTRAL, S/N",918014101,NA,918014302,"280133","Aranjuez","28","MADRID","13","MADRID","28300",1,"GENERAL",6,"COMUNIDAD AUTÓNOMA",34,"SERVICIO MADRILEÑO DE SALUD","N","N","N","N","N",NA,"N","gerencia.htaj@salud.madrid.org",1,1,0,0,1,0,0,0,0,0,1,0,13,-3.61079500499994,40.0572571380001,"Manual","11","Sur Ii"
"1328000085","281281","HOSPITAL UNIVERSITARIO DEL SURESTE - EMPRESA PUBLICA HOSPTIAL DEL SURESTE","RONDA DEL SUR 10","918394000","280148","Arganda del Rey","28","MADRID","13","MADRID","28500",132,"C11","Hospitales Generales","2","SERVICIOS E INSTITUTOS DE SALUD DE LAS COMUNIDADES AUTÓNOMAS","N",NA,NA,"N",NA,550,"HOSPITAL UNIVERSITARIO DEL SURESTE","RONDA DEL SUR, 10",918394454,918394000,918394278,"280148","Arganda del Rey","28","MADRID","13","MADRID","28500",1,"GENERAL",6,"COMUNIDAD AUTÓNOMA",34,"SERVICIO MADRILEÑO DE SALUD","N","N","N","N","N",NA,"N","gerencia.hses@salud.madrid.org",1,1,0,0,0,0,0,0,0,0,1,0,18,-3.45678600999997,40.2969695560001,"Manual","01","Sur-Este"
"1328000067","281090","HOSPITAL UNIVERSITARIO HM MONTEPRINCIPE","AVENIDA DE MONTEPRINCIPE 25","917089900","280225","Boadilla del Monte","28","MADRID","13","MADRID","28660",170,"C11","Hospitales Generales","20","PRIVADOS","N",NA,NA,"N",NA,534,"HOSPITAL UNIVERSITARIO HM  MONTEPRINCIPE","AV. MONTEPRÍNCIPE, 25",917089900,NA,912110118,"280225","Boadilla del Monte","28","MADRID","13","MADRID","28660",1,"GENERAL",14,"PRIVADO NO BENÉFICO",23,"PRIVADO NO BENÉFICO","S","N","N","N","N",NA,"S","lespada@hmhospitales.com",1,3,0,2,2,1,0,0,0,0,1,1,1,-3.84396530299995,40.4131397020001,"StreetAddress","06","Oeste"
"1328000073","281180","HOSPITAL LOS MADROÑOS","CARRETERA DE M-501 (DE ALCORCON A PLASENCIA) KM.17,900","918163526","280262","Brunete","28","MADRID","13","MADRID","28690",53,"C11","Hospitales Generales","20","PRIVADOS","N",NA,NA,"N","HOSPITAL_LOSMADRONOS@YAHOO.ES",541,"HOSPITAL LOS MADROÑOS","CRTRA. M-501 KM 17,900 (VÍA DE SERVICIO)",918163526,NA,918159728,"280262","Brunete","28","MADRID","13","MADRID","28690",1,"GENERAL",14,"PRIVADO NO BENÉFICO",23,"PRIVADO NO BENÉFICO","N","N","N","N","N",NA,"S","info@lmh.es",1,2,0,0,0,0,0,0,0,0,1,0,0,-3.99388377599996,40.3978750000001,"Postal","06","Oeste"
"1328000022","280761","HOSPITAL DE LA FUENFRIA","CARRETERA DE DEHESAS S/N","918520300","280382","Cercedilla","28","MADRID","13","MADRID","28470",192,"C13","Hospitales de media y larga estancia","2","SERVICIOS E INSTITUTOS DE SALUD DE LAS COMUNIDADES AUTÓNOMAS","N",NA,NA,"N",NA,517,"HOSPITAL DE LA FUENFRIA","CTRA. DE LAS DEHESAS, S/N",918520300,NA,918521567,"280382","Cercedilla","28","MADRID","13","MADRID","28470",13,"GERIATRÍA Y/O LARGA ESTANCIA",1,"SEGURIDAD SOCIAL",34,"SERVICIO MADRILEÑO DE SALUD","S","N","N","N","N",NA,"N","gerent.hlff@salud.madrid.org",0,0,0,0,0,0,0,0,0,0,0,0,0,-4.07409086599995,40.760709687,"Manual","06","Oeste"
"1328000004","280783","CENTRO SAN JUAN DE DIOS CIEMPOZUELOS","AVENIDA DE SAN JUAN DE DIOS 1","918930001","280409","Ciempozuelos","28","MADRID","13","MADRID","28350",339,"C190","Otros Centros con Internamiento","20","PRIVADOS","N",NA,NA,"N","JMLOPEZ@BETICA.SANJUANDEDIOS-OH.ES",519,"CENTRO SAN JUAN DE DIOS","AV. DE SAN JUAN DE DIOS, 1",918930001,646599099,918932868,"280409","Ciempozuelos","28","MADRID","13","MADRID","28350",6,"PSIQUIÁTRICO",12,"PRIVADO-BENÉFICO (IGLESIA)",21,"PRIVADO-BENÉFICO (IGLESIA)","S","N","N","N","N",NA,"S","elvira.conde@sjd.es",0,0,0,0,0,0,0,0,0,0,0,0,0,-3.61102488799997,40.1596863890001,"StreetAddressExt","11","Sur Ii"
"1328000037","280777","COMPLEJO ASISTENCIAL BENITO MENNI","CALLE DE LOS JARDINES 1","918930150","280409","Ciempozuelos","28","MADRID","13","MADRID","28350",344,"C14","Hospitales de salud mental y tratamiento de toxicomanías","20","PRIVADOS","N",NA,NA,"N","SGDO-CORAZON.ADMON@MAD.SERVICOM.ES",518,"HH. HH. SGDO. C. DE JESUS. COMPLEJO ASISTENCIAL BENITO MENNI","JARDINES, 1",918930150,NA,918930175,"280409","Ciempozuelos","28","MADRID","13","MADRID","28350",6,"PSIQUIÁTRICO",12,"PRIVADO-BENÉFICO (IGLESIA)",21,"PRIVADO-BENÉFICO (IGLESIA)","N","N","N","N","N",NA,"S","jrodriguez.cabm@hospitalarias.es",0,0,0,0,0,0,0,0,0,0,0,0,0,-3.62223452599994,40.1562350720001,"StreetAddress","11","Sur Ii"
"1328016665","281359","HOSPITAL GENERAL DE VILLALBA","CARRETERA DE ALPEDRETE M-608, KM. 41","000000000","280474","Collado Villalba","28","MADRID","13","MADRID","28400",217,"C11","Hospitales Generales","2","SERVICIOS E INSTITUTOS DE SALUD DE LAS COMUNIDADES AUTÓNOMAS","N",NA,NA,"N",NA,557,"HOSPITAL GENERAL DE VILLALBA","CARRETERA DE ALPEDRETE A MORALZARZAL M-608 KM 41",910908102,910908104,910908122,"280474","Collado Villalba","28","MADRID","13","MADRID","28400",1,"GENERAL",6,"COMUNIDAD AUTÓNOMA",34,"SERVICIO MADRILEÑO DE SALUD","N","N","N","N","N",NA,"N","secretariadireccion@hgvillalba.es",1,2,0,1,0,0,0,0,1,0,1,1,18,-4.00107882499998,40.6542750940001,"Manual","06","Oeste"
"1328000032","280796","HOSPITAL ASEPEYO MADRID","CALLE DE JOAQUIN DE CARDENAS 2","916735011","280493","Coslada","28","MADRID","13","MADRID","28823",133,"C12","Hospitales especializados","21","MÚTUAS COLABORADORAS CON LA SEGURIDAD SOCIAL","N",NA,NA,"N",NA,520,"HOSPITAL MONOGRAFICO ASEPEYO DE TRAUMAT. CIRUGIA Y REHABILITACION","JOAQUÍN DE CÁRDENAS, 2",916735011,NA,916276204,"280493","Coslada","28","MADRID","13","MADRID","28823",10,"TRAUMATOLOGÍA Y/O REHABILITACIÓN",10,"MATEP",19,"MATEP","S","N","N","N","N",NA,"N","IGARCIAGISMERA@ASEPEYO.ES",1,2,0,0,0,0,0,0,0,0,0,0,0,-3.53136248999994,40.4370282580001,"PointAddress","02","Centro-Norte"
"1328000081","281269","EMPRESA PUBLICA HOSPITAL DEL HENARES","AVENIDA MARIE CURIE S/N","911912000","280493","Coslada","28","MADRID","13","MADRID","28822",249,"C11","Hospitales Generales","2","SERVICIOS E INSTITUTOS DE SALUD DE LAS COMUNIDADES AUTÓNOMAS","N",NA,NA,"N",NA,548,"HOSPITAL UNIVERSITARIO DEL HENARES","AV. MARIE CURIE S/N",911912000,911912008,911912288,"280493","Coslada","28","MADRID","13","MADRID","28822",1,"GENERAL",6,"COMUNIDAD AUTÓNOMA",34,"SERVICIO MADRILEÑO DE SALUD","S","N","N","N","N",NA,"N","gerencia.hhen@salud.madrid.org",1,1,0,0,0,0,0,0,0,0,2,0,25,-3.53269413099997,40.418437247,"Manual","02","Centro-Norte"
"1328000071","281146","HOSPITAL UNIVERSITARIO DE FUENLABRADA","CAMINO DEL MOLINO 2","916006000","280587","Fuenlabrada","28","MADRID","13","MADRID","28942",406,"C11","Hospitales Generales","2","SERVICIOS E INSTITUTOS DE SALUD DE LAS COMUNIDADES AUTÓNOMAS","N",NA,NA,"N",NA,537,"HOSPITAL UNIVERSITARIO DE FUENLABRADA","CAMINO DEL MOLINO, 2",916006000,NA,916006701,"280587","Fuenlabrada","28","MADRID","13","MADRID","28942",1,"GENERAL",6,"COMUNIDAD AUTÓNOMA",34,"SERVICIO MADRILEÑO DE SALUD","S","N","N","N","N",NA,"N","gerencia.hflr@salud.madrid.org",1,2,1,1,1,0,0,2,1,1,1,1,0,-3.81595151999994,40.2870767570001,"Manual","09","Sur-Oeste Ii"
"1328000062","280989","HOSPITAL UNIVERSITARIO DE GETAFE","CARRETERA DE MADRID-TOLEDO KM.12,500","916839360","280650","Getafe","28","MADRID","13","MADRID","28905",543,"C11","Hospitales Generales","2","SERVICIOS E INSTITUTOS DE SALUD DE LAS COMUNIDADES AUTÓNOMAS","N",NA,NA,"N",NA,529,"HOSPITAL UNIVERSITARIO DE GETAFE","CRTRA DE TOLEDO, KM. 12,5",916839360,NA,916839748,"280650","Getafe","28","MADRID","13","MADRID","28905",1,"GENERAL",1,"SEGURIDAD SOCIAL",34,"SERVICIO MADRILEÑO DE SALUD","S","N","N","N","N",NA,"N","gencia.hugf@salud.madrid.org",2,2,0,1,1,0,0,0,2,1,1,0,24,-3.74256698899995,40.3125188940001,"Manual","10","Sur I"
"1328000088","281326","CASTA GUADARRAMA","CARRETERA DE LA CORUÑA KM.50,300","915949500","280685","Guadarrama","28","MADRID","13","MADRID","28440",160,"C14","Hospitales de salud mental y tratamiento de toxicomanías","20","PRIVADOS","N",NA,NA,"N",NA,554,"CASTA GUADARRAMA","CARRETERA NACIONAL VI, KM. 50,300",918548328,NA,918540686,"280685","Guadarrama","28","MADRID","13","MADRID","28440",6,"PSIQUIÁTRICO",14,"PRIVADO NO BENÉFICO",23,"PRIVADO NO BENÉFICO","N","N","N","N","N",NA,"S","direccionguadarrama@castasalud.com",0,0,0,0,0,0,0,0,0,0,0,0,0,-4.11415084799995,40.6735100000001,"Postal","06","Oeste"
"1328000033","280800","HOSPITAL DE GUADARRAMA","PASEO MOLINO DEL REY 2","918562000","280685","Guadarrama","28","MADRID","13","MADRID","28440",144,"C13","Hospitales de media y larga estancia","2","SERVICIOS E INSTITUTOS DE SALUD DE LAS COMUNIDADES AUTÓNOMAS","N",NA,NA,"N",NA,521,"HOSPITAL GUADARRAMA","PASEO DEL MOLINO DEL REY, 2",918562000,NA,918562057,"280685","Guadarrama","28","MADRID","13","MADRID","28440",13,"GERIATRÍA Y/O LARGA ESTANCIA",6,"COMUNIDAD AUTÓNOMA",34,"SERVICIO MADRILEÑO DE SALUD","N","N","N","N","N",NA,"N","gerencia.hgua@salud.madrid.org",0,0,0,0,0,0,0,0,0,0,0,0,0,-4.08611077699993,40.669460497,"Manual","06","Oeste"
"1328020933","281438","INSTITUTO PSIQUIATRICO SERVICIOS DE SALUD MENTAL JOSE GERMAIN - 2 ARAGON","CALLE ARAGON 17","000000000","280745","Leganés","28","MADRID","13","MADRID","28913",139,"C14","Hospitales de salud mental y tratamiento de toxicomanías","2","SERVICIOS E INSTITUTOS DE SALUD DE LAS COMUNIDADES AUTÓNOMAS","S","281427","Instituto Psiquiátrico Servicios De Salud Mental José Germain","N",NA,565,"INSTITUTO PSIQUIATRICO SERVICIOS DE SALUD MENTAL JOSE GERMAIN-2 ARAGON","C/ ARAGÓN,17",915866767,NA,915866543,"280745","Leganés","28","MADRID","13","MADRID","28914",6,"PSIQUIÁTRICO",6,"COMUNIDAD AUTÓNOMA",34,"SERVICIO MADRILEÑO DE SALUD","S","N","S","N","N",NA,"N","gerencia.ipjg@salud.madrid.org",0,0,0,0,0,0,0,0,0,0,0,0,0,-3.77466861099992,40.3315148820001,"StreetAddress","09","Sur-Oeste Ii"
"1328000049","280843","INSTITUTO PSIQUIATRICO SERVICIOS DE SALUD MENTAL JOSE GERMAIN - 1 LUNA","CALLE LUNA 1","915856500","280745","Leganés","28","MADRID","13","MADRID","28911",42,"C14","Hospitales de salud mental y tratamiento de toxicomanías","2","SERVICIOS E INSTITUTOS DE SALUD DE LAS COMUNIDADES AUTÓNOMAS","S","281427","Instituto Psiquiátrico Servicios De Salud Mental José Germain","N","DESVIAT@IPSQGERMAIN.ES",523,"INSTITUTO PSIQUIATRICO SERVICIOS DE SALUD MENTAL JOSE GERMAIN-1 LUNA","LA LUNA, 1",915866767,NA,915866543,"280745","Leganés","28","MADRID","13","MADRID","28911",6,"PSIQUIÁTRICO",6,"COMUNIDAD AUTÓNOMA",34,"SERVICIO MADRILEÑO DE SALUD","S","N","S","N","N",NA,"N","gerencia.ipjg@salud.madrid.org",0,0,0,0,0,0,0,0,0,0,0,0,0,-3.76681887599995,40.327050265,"Manual","09","Sur-Oeste Ii"
"1328000042","280838","HOSPITAL UNIVERSITARIO SEVERO OCHOA","AVENIDA ORELLANA S/N","914818000","280745","Leganés","28","MADRID","13","MADRID","28911",386,"C11","Hospitales Generales","2","SERVICIOS E INSTITUTOS DE SALUD DE LAS COMUNIDADES AUTÓNOMAS","N",NA,NA,"N","EAREAS@HSO.ES",522,"HOSPITAL UNIVERSITARIO SEVERO OCHOA","AVENIDA DE ORELLANA S/Nº",914818000,NA,916940717,"280745","Leganés","28","MADRID","13","MADRID","28911",1,"GENERAL",1,"SEGURIDAD SOCIAL",34,"SERVICIO MADRILEÑO DE SALUD","S","N","N","N","N",NA,"N","gencia.hsvo@salud.madrid.org",2,2,0,1,1,0,0,0,0,0,2,0,57,-3.76786968699997,40.3218750940001,"Manual","09","Sur-Oeste Ii"
"1328020928","281416","CLINICA SAN VICENTE","AVENIDA DEL VENTISQUERO DE LA CONDESA 46","000000000","280796","Madrid","28","MADRID","13","MADRID","28035",45,"C13","Hospitales de media y larga estancia","20","PRIVADOS","N",NA,NA,"N",NA,563,"CLINICA SAN VICENTE","AVDA. VENTISQUERO DE LA CONDESA, Nº46 4ªPLANTA",916318212,916317938,917348731,"280796","Madrid","28","MADRID","13","MADRID","28035",11,"REHABILITACIÓN PSICOFÍSICA",14,"PRIVADO NO BENÉFICO",23,"PRIVADO NO BENÉFICO","N","N","N","N","S",NA,"S","info@clinicasanvicente.es",0,0,0,0,0,0,0,0,0,0,0,0,0,-3.71802232799996,40.494596835,"PointAddress","05","Norte"
"1328020032","281393","CLINICA UNIVERSIDAD DE NAVARRA","CALLE DEL MARQUESADO DE SANTA MARTA 1","000000000","280796","Madrid","28","MADRID","13","MADRID","28022",72,"C11","Hospitales Generales","20","PRIVADOS","N",NA,NA,"N",NA,561,"CLINICA UNIVERSIDAD DE NAVARRA","MARQUESADO DE SANTA MARTA, 1",913138400,NA,NA,"280796","Madrid","28","MADRID","13","MADRID","28027",1,"GENERAL",13,"OTRO PRIVADO BENÉFICO",22,"OTRO PRIVADO-BENÉFICO","N","N","N","N","S",NA,"N","MADRIDCUNDIR@UNAV.ES",2,2,1,1,1,0,0,2,1,1,1,1,1,-3.62483125099993,40.447731457,"PointAddress","04","Noreste"
"1328000077","281247","HOSPITAL PARDO DE ARAVACA","CALLE DE LA SALLE 12","917402682","280796","Madrid","28","MADRID","13","MADRID","28023",98,"C11","Hospitales Generales","20","PRIVADOS","N",NA,NA,"N",NA,546,"VITAS NISA PARDO DE ARAVACA.","LA SALLE, 12",915129000,915129027,913079510,"280796","Madrid","28","MADRID","13","MADRID","28023",1,"GENERAL",14,"PRIVADO NO BENÉFICO",23,"PRIVADO NO BENÉFICO","N","N","N","N","S",NA,"S","aravaca@hospitales.nisa.es",1,1,0,1,1,0,0,0,0,0,1,1,0,-3.78345834199996,40.4662493290001,"PointAddress","06","Oeste"
"1328000069","281113","HOSPITAL MD ANDERSON CANCER CENTER MADRID","CALLE DE GOMEZ HEMANS 2","913834980","280796","Madrid","28","MADRID","13","MADRID","28033",99,"C12","Hospitales especializados","20","PRIVADOS","N",NA,NA,"N",NA,535,"CENTRO ONCOLOGICO MD ANDERSON INTERNATIONAL ESPAÑA","GÓMEZ HEMANS. 2-4",917878600,NA,917680687,"280796","Madrid","28","MADRID","13","MADRID","28033",8,"ONCOLÓGICO",5,"MINISTERIO DE DEFENSA",23,"PRIVADO NO BENÉFICO","N","N","N","N","S",NA,"S","info@mdanderson.es",1,1,1,0,0,0,0,2,0,1,1,1,0,-3.66648950699994,40.4707217220001,"PointAddress","04","Noreste"
"1328000063","281034","CLINICA ISADORA S.A.","CALLE DE LOS PIRINEOS 7","913111000","280796","Madrid","28","MADRID","13","MADRID","28040",20,"C190","Otros Centros con Internamiento","20","PRIVADOS","N",NA,NA,"N",NA,530,"CLINICA ISADORA","PIRINEOS, 7",913111000,NA,913111659,"280796","Madrid","28","MADRID","13","MADRID","28040",12,"MÉDICO-QUIRÚRGICO",14,"PRIVADO NO BENÉFICO",23,"PRIVADO NO BENÉFICO","N","N","N","N","S",NA,"S","clinica-isadora@clinica-isadora.es",0,0,0,0,0,0,0,0,0,0,0,0,0,-3.71652282299993,40.4571580090001,"PointAddress","06","Oeste"
"1328000056","280528","HOSPITAL UNIVERSITARIO VIRGEN DE LA PALOMA, S.L.","CALLE DE LA LOMA 1","915348207","280796","Madrid","28","MADRID","13","MADRID","28003",92,"C11","Hospitales Generales","20","PRIVADOS","N",NA,NA,"N",NA,504,"HOSPITAL VIRGEN DE LA PALOMA, S.A.","LOMA, 1",915348207,NA,915532268,"280796","Madrid","28","MADRID","13","MADRID","28003",2,"QUIRÚRGICO",14,"PRIVADO NO BENÉFICO",23,"PRIVADO NO BENÉFICO","N","N","N","N","S",NA,"N","facturacion@hospitalvpaloma.com",1,1,0,1,0,2,0,0,0,0,1,1,0,-3.71589021199998,40.4453369020001,"PointAddress","06","Oeste"
"1328000051","280395","CLINICA SAN MIGUEL","CALLE DE ARTURO SORIA 204","914135011","280796","Madrid","28","MADRID","13","MADRID","28043",145,"C14","Hospitales de salud mental y tratamiento de toxicomanías","20","PRIVADOS","N",NA,NA,"N",NA,496,"CLINICA SAN MIGUEL","ARTURO SORIA, 204",914135011,NA,914135638,"280796","Madrid","28","MADRID","13","MADRID","28043",6,"PSIQUIÁTRICO",12,"PRIVADO-BENÉFICO (IGLESIA)",21,"PRIVADO-BENÉFICO (IGLESIA)","N","N","N","N","S",NA,"S","cpolidura.sanmiguel@hospitalarias.es",0,0,0,0,0,0,0,0,0,0,0,0,0,-3.66053567699993,40.4598045120001,"PointAddress","04","Noreste"
"1328000040","280339","HOSPITAL SAN RAFAEL","CALLE DE SERRANO 199","915649943","280796","Madrid","28","MADRID","13","MADRID","28016",188,"C11","Hospitales Generales","20","PRIVADOS","N",NA,NA,"N",NA,490,"HOSPITAL SAN RAFAEL","SERRANO, 199",915649943,915646181,915635005,"280796","Madrid","28","MADRID","13","MADRID","28016",1,"GENERAL",12,"PRIVADO-BENÉFICO (IGLESIA)",21,"PRIVADO-BENÉFICO (IGLESIA)","N","N","N","N","S",NA,"S","sanrafael.secretaria@hsjd.es",1,2,0,1,0,0,0,0,0,0,1,0,0,-3.68144761099995,40.4519595190001,"PointAddress","02","Centro-Norte"
"1328000025","280954","HOSPITAL UNIVERSITARIO HM MADRID","PLAZA DEL CONDE DEL VALLE DE SUCHIL 16","914476600","280796","Madrid","28","MADRID","13","MADRID","28015",99,"C11","Hospitales Generales","20","PRIVADOS","N",NA,NA,"N","CONTABILIDAD@HOSPITALDEMADRID.COM",528,"HOSPITAL DE MADRID","PZA CONDE DEL VALLE DE SUCHILL, 16",914476600,915941598,915941598,"280796","Madrid","28","MADRID","13","MADRID","28015",2,"QUIRÚRGICO",12,"PRIVADO-BENÉFICO (IGLESIA)",23,"PRIVADO NO BENÉFICO","S","N","N","N","S",NA,"S","msanchezgalindo@hmhospitales.com",1,2,0,0,0,0,0,0,0,0,1,0,0,-3.70694708499997,40.4313188730001,"PointAddress","07","Centro-Oeste"
"1328000014","280468","HOSPITAL SAN CAMILO","CALLE DE JUAN BRAVO 39","914022100","280796","Madrid","28","MADRID","13","MADRID","28006",74,"C11","Hospitales Generales","20","PRIVADOS","N",NA,NA,"N",NA,502,"HOSPITAL RUBER JUAN BRAVO 39","JUAN BRAVO, 39",910687777,NA,913098223,"280796","Madrid","28","MADRID","13","MADRID","28006",1,"GENERAL",14,"PRIVADO NO BENÉFICO",23,"PRIVADO NO BENÉFICO","N","N","N","N","S",NA,"S","secretariadireccion.rjb@quironsalud.es",1,1,0,0,0,0,0,0,0,0,0,0,16,-3.67775912999997,40.4326364450001,"PointAddress","02","Centro-Norte"
"1328000008","280604","HOSPITAL UNIVERSITARIO LA ZARZUELA","CALLE DE PLEYADES 25","915858000","280796","Madrid","28","MADRID","13","MADRID","28023",116,"C11","Hospitales Generales","20","PRIVADOS","N",NA,NA,"N",NA,510,"HOSPITAL UNIVERSITARIO LA ZARZUELA","PLÉYADES, 25 (ARAVACA)",915858016,915858000,913572892,"280796","Madrid","28","MADRID","13","MADRID","28023",1,"GENERAL",14,"PRIVADO NO BENÉFICO",23,"PRIVADO NO BENÉFICO","S","N","N","N","S",NA,"N","idiezr@sanitas.es",1,2,0,1,1,0,0,0,0,0,1,0,0,-3.78403759999998,40.462389838,"PointAddress","06","Oeste"
"1328000007","280534","CLINICA LA LUZ, S.L.","CALLE DEL MAESTRO ANGEL LLORCA 8","915530500","280796","Madrid","28","MADRID","13","MADRID","28003",152,"C11","Hospitales Generales","20","PRIVADOS","N",NA,NA,"N",NA,505,"CLINICA LA LUZ, S.L.","MAESTRO ÁNGEL LLORCA, 8",914530200,914530599,914530425,"280796","Madrid","28","MADRID","13","MADRID","28003",12,"MÉDICO-QUIRÚRGICO",14,"PRIVADO NO BENÉFICO",23,"PRIVADO NO BENÉFICO","N","N","N","N","S",NA,"S","info.laluz@quironsalud.es",3,2,0,1,1,1,0,2,0,1,2,1,0,-3.71401461399995,40.4440887310001,"PointAddress","07","Centro-Oeste"
"1328000006","280549","HOSPITAL FUENSANTA","CALLE DE ARTURO SORIA 17","914079295","280796","Madrid","28","MADRID","13","MADRID","28027",20,"C11","Hospitales Generales","20","PRIVADOS","N",NA,NA,"N","FUENSANTA@TECNIVIA.COM",506,"FUENSANTA S.L. (CLINICA FUENSANTA)","ARTURO SORIA, 17",914100200,NA,914071512,"280796","Madrid","28","MADRID","13","MADRID","28027",2,"QUIRÚRGICO",14,"PRIVADO NO BENÉFICO",23,"PRIVADO NO BENÉFICO","N","N","N","N","S",NA,"S","jgabiola@grupofuensanta.com",1,1,1,0,0,0,0,0,0,0,2,1,30,-3.63993874599993,40.4401970640001,"PointAddress","04","Noreste"
"1328000078","281225","HOSPITAL UNIVERSITARIO HM SANCHINARRO","CALLE DE OÑA 10","000000000","280796","Madrid","28","MADRID","13","MADRID","28050",198,"C11","Hospitales Generales","20","PRIVADOS","N",NA,NA,"N",NA,544,"HOSPITAL UNIVERSITARIO MADRID SANCHINARRO","OÑA, 10",917567800,NA,917500133,"280796","Madrid","28","MADRID","13","MADRID","28050",1,"GENERAL",14,"PRIVADO NO BENÉFICO",23,"PRIVADO NO BENÉFICO","S","N","N","N","S",NA,"S","mpelaez@hmhospitales.com",3,4,1,1,1,0,0,3,1,1,1,1,1,-3.66623351499993,40.4892300490001,"PointAddress","04","Noreste"
"1328000064","281049","HOSPITAL HLA UNIVERSITARIO MONCLOA","AVENIDA DE VALLADOLID 83","915954500","280796","Madrid","28","MADRID","13","MADRID","28008",235,"C11","Hospitales Generales","20","PRIVADOS","N",NA,NA,"N",NA,531,"HOSPITAL UNIVERSITARIO MONCLOA","AV. VALLADOLID, 83",915957392,915957291,915957077,"280796","Madrid","28","MADRID","13","MADRID","28008",1,"GENERAL",14,"PRIVADO NO BENÉFICO",23,"PRIVADO NO BENÉFICO","N","N","N","N","S",NA,"S","direccion.moncloa@grupohla.com",1,2,0,1,1,0,0,0,0,0,1,0,1,-3.73362436599996,40.4332431450001,"PointAddress","06","Oeste"
"1328000059","280382","HOSPITAL SAN FRANCISCO DE ASIS","CALLE DE JOAQUIN COSTA 28","915630360","280796","Madrid","28","MADRID","13","MADRID","28002",168,"C11","Hospitales Generales","20","PRIVADOS","N",NA,NA,"N",NA,495,"HOSPITAL SAN FRANCISCO DE ASIS","JOAQUÍN COSTA, 28",915617100,NA,915643971,"280796","Madrid","28","MADRID","13","MADRID","28002",1,"GENERAL",12,"PRIVADO-BENÉFICO (IGLESIA)",21,"PRIVADO-BENÉFICO (IGLESIA)","N","N","N","N","S",NA,"S","jmanuel.lopez@ssfda.com",1,2,0,1,0,0,0,1,0,0,1,1,12,-3.68288271699993,40.442606068,"PointAddress","02","Centro-Norte"
"1328000015","280376","HOSPITAL VIAMED SANTA ELENA, S.L","CALLE DE LA GRANJA 8","914539400","280796","Madrid","28","MADRID","13","MADRID","28003",82,"C11","Hospitales Generales","20","PRIVADOS","N",NA,NA,"N",NA,494,"CLINICA SANTA ELENA","LA GRANJA, 8",914539400,914539407,914539401,"280796","Madrid","28","MADRID","13","MADRID","28003",1,"GENERAL",12,"PRIVADO-BENÉFICO (IGLESIA)",21,"PRIVADO-BENÉFICO (IGLESIA)","N","N","N","N","S",NA,"S","informacion@clinica-santa-elena.org",1,1,0,0,0,1,0,0,0,0,1,0,21,-3.71713894999994,40.4456960740001,"PointAddress","06","Oeste"
"1328000009","280421","HOSPITAL UNIVERSITARIO FUNDACION JIMENEZ DIAZ","AVENIDA DE LOS REYES CATOLICOS 2","915504800","280796","Madrid","28","MADRID","13","MADRID","28040",651,"C11","Hospitales Generales","20","PRIVADOS","N",NA,NA,"N","RVELEZ@FJD.ES",499,"HOSPITAL UNIVERSITARIO FUNDACION JIMENEZ DIAZ","AV. DE LOS REYES CATÓLICOS, 2",915504800,NA,915443625,"280796","Madrid","28","MADRID","13","MADRID","28040",1,"GENERAL",14,"PRIVADO NO BENÉFICO",23,"PRIVADO NO BENÉFICO","S","N","N","N","S",NA,"S","fjd@fjd.es",4,4,2,1,2,1,0,2,0,0,3,2,25,-3.71890924599995,40.4385046030001,"PointAddress","07","Centro-Oeste"
"1328000074","281179","HOSPITAL UNIVERSITARIO LA MORALEJA","AVENIDA DE FRANCISCO PI Y MARGALL 81","913244805","280796","Madrid","28","MADRID","13","MADRID","28050",123,"C11","Hospitales Generales","20","PRIVADOS","N",NA,NA,"N",NA,540,"HOSPITAL LA MORALEJA","AV. FRANCISCO PI Y MARGALL, 81",917679100,NA,917679344,"280796","Madrid","28","MADRID","13","MADRID","28050",1,"GENERAL",14,"PRIVADO NO BENÉFICO",23,"PRIVADO NO BENÉFICO","S","N","N","N","S",NA,"N","bruiz@sanitas.es",1,2,0,1,1,1,0,0,2,1,1,1,0,-3.66233561299993,40.492374193,"PointAddress","04","Noreste"
"1328000030","280565","HOSPITAL RUBER INTERNACIONAL","CALLE DE LA MASO 38","913875000","280796","Madrid","28","MADRID","13","MADRID","28034",143,"C11","Hospitales Generales","20","PRIVADOS","N",NA,NA,"N",NA,508,"HOSPITAL RUBER INTERNACIONAL","LA MASÓ, 38",913875000,913875270,913875259,"280796","Madrid","28","MADRID","13","MADRID","28034",1,"GENERAL",14,"PRIVADO NO BENÉFICO",23,"PRIVADO NO BENÉFICO","N","N","N","N","S",NA,"S","ruber.rbi@ruberinternacional.es",3,3,1,1,1,0,0,3,1,1,2,1,1,-3.71408684099993,40.4888935270001,"StreetAddressExt","05","Norte"
"1328000053","280587","HOSPITAL LA MILAGROSA S.A.","CALLE DE MODESTO LAFUENTE 14","914472100","280796","Madrid","28","MADRID","13","MADRID","28010",142,"C11","Hospitales Generales","20","PRIVADOS","N",NA,NA,"N",NA,509,"CLINICA LA MILAGROSA","MODESTO LAFUENTE, 14",914472100,NA,914473449,"280796","Madrid","28","MADRID","13","MADRID","28010",2,"QUIRÚRGICO",14,"PRIVADO NO BENÉFICO",23,"PRIVADO NO BENÉFICO","N","N","N","N","S",NA,"S","lamilagrosa@lamilagrosa.com",1,3,2,1,1,1,0,1,0,1,1,1,0,-3.69635706999998,40.4370245690001,"PointAddress","07","Centro-Oeste"
"1328000018","280360","HOSPITAL BEATA MARIA ANA","CALLE DEL DOCTOR ESQUERDO 83","914097423","280796","Madrid","28","MADRID","13","MADRID","28007",163,"C11","Hospitales Generales","20","PRIVADOS","N",NA,NA,"N",NA,493,"HOSPITAL BEATA MARIA ANA. HH. HOSPITALARIAS SGDO. C. DE JESUS","DR ESQUERDO, 83",914097423,NA,915732026,"280796","Madrid","28","MADRID","13","MADRID","28007",12,"MÉDICO-QUIRÚRGICO",12,"PRIVADO-BENÉFICO (IGLESIA)",21,"PRIVADO-BENÉFICO (IGLESIA)","N","N","N","N","S",NA,"S","acapilla.hbma@hospitalarias.es",1,2,0,0,0,0,0,1,0,0,1,1,0,-3.66911805199993,40.418052485,"PointAddress","01","Sur-Este"
"1328000079","281214","HOSPITAL CENTRO DE CUIDADOS LAGUNA","CALLE DEL CONCEJAL FRANCISCO JOSE JIMENEZ MARTIN 128","000000000","280796","Madrid","28","MADRID","13","MADRID","28047",47,"C13","Hospitales de media y larga estancia","20","PRIVADOS","N",NA,NA,"N",NA,543,"HOSPITAL CENTRO DE CUIDADOS LAGUNA","CONCEJAL FRANCISCO JOSÉ JIMÉNEZ MARTÍN, 128",915099137,NA,914013649,"280796","Madrid","28","MADRID","13","MADRID","28047",14,"OTROS MONOGRÁFICOS",13,"OTRO PRIVADO BENÉFICO",22,"OTRO PRIVADO-BENÉFICO","N","N","N","N","S",NA,"S","direccion@lagunacuida.org",0,0,0,0,0,0,0,0,0,0,0,0,0,-3.74698762299994,40.400373373,"PointAddress","07","Centro-Oeste"
"1328000065","281087","CLINICA CEMTRO","AVENIDA DEL VENTISQUERO DE LA CONDESA 42","917355757","280796","Madrid","28","MADRID","13","MADRID","28035",94,"C11","Hospitales Generales","20","PRIVADOS","N",NA,NA,"N",NA,533,"CLINICA CEMTRO","AV. VENTISQUERO DE LA CONDESA, 42",917355757,NA,917355758,"280796","Madrid","28","MADRID","13","MADRID","28035",12,"MÉDICO-QUIRÚRGICO",14,"PRIVADO NO BENÉFICO",23,"PRIVADO NO BENÉFICO","N","N","N","N","S",NA,"N","administracion@clinicacemtro.com",1,4,0,0,0,0,0,0,0,0,0,0,0,-3.71697684599997,40.4935140900001,"PointAddress","05","Norte"
"1328000052","280679","SANATORIO ESQUERDO, S.A.","AVENIDA DE LOS POBLADOS 70","917061100","280796","Madrid","28","MADRID","13","MADRID","28044",120,"C14","Hospitales de salud mental y tratamiento de toxicomanías","20","PRIVADOS","N",NA,NA,"N",NA,514,"SANATORIO ESQUERDO, S.A.","AV. DE LOS POBLADOS, 70",917061100,NA,917063521,"280796","Madrid","28","MADRID","13","MADRID","28044",6,"PSIQUIÁTRICO",14,"PRIVADO NO BENÉFICO",23,"PRIVADO NO BENÉFICO","N","N","N","N","S",NA,"N","info@sanatorioesquerdo.com",0,0,0,0,0,0,0,0,0,0,0,0,0,-3.75775973599997,40.381934857,"PointAddress","11","Sur Ii"
"1328000046","280650","CLINICA LOPEZ IBOR","CALLE DEL DOCTOR JUAN JOSE LOPEZ IBOR 2","913162740","280796","Madrid","28","MADRID","13","MADRID","28035",67,"C14","Hospitales de salud mental y tratamiento de toxicomanías","20","PRIVADOS","N",NA,NA,"N",NA,513,"INSTITUTO DE INVESTIGACIONES NEUROPSIQUIATRICAS DR. LOPEZ IBOR","DOCTOR JUAN JOSÉ LÓPEZ IBOR, 2",913162740,913162744,913162844,"280796","Madrid","28","MADRID","13","MADRID","28035",6,"PSIQUIÁTRICO",14,"PRIVADO NO BENÉFICO",23,"PRIVADO NO BENÉFICO","N","N","N","N","S",NA,"N","info@lopezibor.com",0,0,0,0,0,0,0,0,0,0,0,0,0,-3.72445158699998,40.4679078440001,"PointAddress","06","Oeste"
"1328000054","280647","CLINICA DR. LEON","PLAZA DE MARIANO DE CAVIA 3","914332948","280796","Madrid","28","MADRID","13","MADRID","28007",96,"C14","Hospitales de salud mental y tratamiento de toxicomanías","20","PRIVADOS","N",NA,NA,"N",NA,512,"SANATORIO NEUROPSIQUIATRICO DOCTOR LEON","PZA MARIANO DE CAVIA, 3",914332948,NA,914334938,"280796","Madrid","28","MADRID","13","MADRID","28007",6,"PSIQUIÁTRICO",14,"PRIVADO NO BENÉFICO",23,"PRIVADO NO BENÉFICO","N","N","N","N","S",NA,"N","sanatoriodrleon@telefonica.net , loclileon@hotmail.com",0,0,0,0,0,0,0,0,0,0,0,0,0,-3.67827789899997,40.4076626090001,"PointAddress","01","Sur-Este"
"1328000011","280626","HOSPITAL HM NUEVO BELEN","CALLE DE JOSE SILVA 7","917444100","280796","Madrid","28","MADRID","13","MADRID","28043",60,"C12","Hospitales especializados","20","PRIVADOS","N",NA,NA,"N",NA,511,"HOSPITAL UNIVERSITARIO HM NUEVO BELEN","JOSÉ SILVA, 7",917444100,917441600,914153305,"280796","Madrid","28","MADRID","13","MADRID","28043",3,"MATERNAL",14,"PRIVADO NO BENÉFICO",23,"PRIVADO NO BENÉFICO","S","N","N","N","S",NA,"N","pmonteliu@hmhospitales.com",0,0,0,0,0,0,0,0,0,0,1,1,0,-3.65770117499994,40.455157129,"PointAddress","04","Noreste"
"1328000013","280552","HOSPITAL RUBER JUAN BRAVO","CALLE DE JUAN BRAVO 49","914026100","280796","Madrid","28","MADRID","13","MADRID","28006",173,"C11","Hospitales Generales","20","PRIVADOS","N",NA,NA,"N",NA,507,"HOSPITAL RUBER JUAN BRAVO 49","JUAN BRAVO, 49",910687999,NA,914024617,"280796","Madrid","28","MADRID","13","MADRID","28006",1,"GENERAL",14,"PRIVADO NO BENÉFICO",23,"PRIVADO NO BENÉFICO","N","N","N","N","S",NA,"S","secretariadireccion.rjb@quironsalud.es",1,2,0,1,1,0,0,0,0,0,1,1,0,-3.67630957499995,40.432576453,"PointAddress","02","Centro-Norte"
"1328000010","280474","HOSPITAL NUESTRA SEÑORA DE AMERICA","CALLE DE ARTURO SORIA 103-105-107","914130061","280796","Madrid","28","MADRID","13","MADRID","28043",100,"C11","Hospitales Generales","20","PRIVADOS","N",NA,NA,"N",NA,503,"HOSPITAL VITHAS NUESTRA SEÑORA DE AMERICA","ARTURO SORIA, 103",902500112,NA,914130974,"280796","Madrid","28","MADRID","13","MADRID","28043",1,"GENERAL",14,"PRIVADO NO BENÉFICO",23,"PRIVADO NO BENÉFICO","N","N","N","N","S",NA,"S","infomadrid@vithas.es",1,3,1,1,1,0,0,0,0,0,1,1,0,-3.65163876199995,40.4498106780001,"PointAddress","04","Noreste"
"1328000061","280455","CLINICA SEAR","CARRETERA DE COLMENAR VIEJO KM.16","917340500","280796","Madrid","28","MADRID","13","MADRID","28049",297,"C13","Hospitales de media y larga estancia","20","PRIVADOS","N",NA,NA,"N",NA,501,"HESTIA MADRID (CLINICA SEAR, S.A.)","CTRA. DE COLMENAR VIEJO, KM. 16",917340500,NA,917348734,"280796","Madrid","28","MADRID","13","MADRID","28049",13,"GERIATRÍA Y/O LARGA ESTANCIA",14,"PRIVADO NO BENÉFICO",23,"PRIVADO NO BENÉFICO","N","N","N","N","S",NA,"S","sear@clinicasear.com",0,0,0,0,0,0,0,0,0,0,0,0,0,-3.78227558599997,40.5327457610001,"PointAddress","05","Norte"
"1328000058","280442","HOSPITAL VIRGEN DEL MAR","CALLE DE HONDURAS 14","913539500","280796","Madrid","28","MADRID","13","MADRID","28016",76,"C11","Hospitales Generales","20","PRIVADOS","N",NA,NA,"N",NA,500,"HOSPITAL VIRGEN DEL MAR","CALLE HONDURAS, Nº 14",913539500,913539501,913451013,"280796","Madrid","28","MADRID","13","MADRID","28016",1,"GENERAL",14,"PRIVADO NO BENÉFICO",23,"PRIVADO NO BENÉFICO","N","N","N","N","S",NA,"N","cibanezr@sanitas.es",1,1,0,0,0,0,0,0,0,0,1,0,0,-3.67854199399994,40.459589529,"PointAddress","02","Centro-Norte"
"1328000050","280409","CLINICA NUESTRA SEÑORA DE LA PAZ","CALLE DE LOPEZ DE HOYOS 259","914156000","280796","Madrid","28","MADRID","13","MADRID","28043",99,"C14","Hospitales de salud mental y tratamiento de toxicomanías","20","PRIVADOS","N",NA,NA,"N",NA,497,"CLINICA NUESTRA SRA. DE LA PAZ","LÓPEZ DE HOYOS, 259",914156000,646599099,915191509,"280796","Madrid","28","MADRID","13","MADRID","28043",6,"PSIQUIÁTRICO",12,"PRIVADO-BENÉFICO (IGLESIA)",21,"PRIVADO-BENÉFICO (IGLESIA)","S","N","N","N","S",NA,"S","elvira.conde@sjd.es",0,0,0,0,0,0,0,0,0,0,0,0,0,-3.66095257799998,40.4567928020001,"PointAddress","04","Noreste"
"1328000060","280357","HOSPITAL QUIRONSALUD SAN JOSE","CALLE DE CARTAGENA 111","914153100","280796","Madrid","28","MADRID","13","MADRID","28002",84,"C11","Hospitales Generales","20","PRIVADOS","N",NA,NA,"N",NA,492,"HOSPITAL QUIRONSALUD SAN JOSE","CARTAGENA, 111",910687000,NA,915103833,"280796","Madrid","28","MADRID","13","MADRID","28002",2,"QUIRÚRGICO",14,"PRIVADO NO BENÉFICO",23,"PRIVADO NO BENÉFICO","N","N","N","N","S",NA,"S","info.sanjose@quironsalud.es",1,1,0,0,0,0,0,0,0,0,1,1,0,-3.67439087699995,40.4405496250001,"PointAddress","02","Centro-Norte"
"1328000024","280344","HOSPITAL DE LA V.O.T. DE SAN FRANCISCO DE ASIS","CALLE DE SAN BERNABE 13","913657600","280796","Madrid","28","MADRID","13","MADRID","28005",74,"C11","Hospitales Generales","20","PRIVADOS","N",NA,NA,"N",NA,491,"HOSPITAL DE LA V.O.T. DE SAN FRANCISCO DE ASIS","SAN BERNABÉ, 13",913657600,NA,913650860,"280796","Madrid","28","MADRID","13","MADRID","28005",1,"GENERAL",12,"PRIVADO-BENÉFICO (IGLESIA)",21,"PRIVADO-BENÉFICO (IGLESIA)","N","N","N","N","S",NA,"S","administrador@hospitalvot.es",1,1,0,0,0,0,0,0,0,0,1,0,0,-3.71396072399995,40.4090898370001,"PointAddress","07","Centro-Oeste"
"1328000029","280416","FUNDACION INSTITUTO SAN JOSE","CALLE DEL PINAR DE SAN JOSE 98","915080140","280796","Madrid","28","MADRID","13","MADRID","28054",285,"C13","Hospitales de media y larga estancia","20","PRIVADOS","N",NA,NA,"N","PALOMA@OHSJD.ES",498,"FUNDACION INSTITUTO SAN JOSE","C\ PINAR DE SAN JOSÉ, 98",915080140,NA,915083760,"280796","Madrid","28","MADRID","13","MADRID","28054",13,"GERIATRÍA Y/O LARGA ESTANCIA",13,"OTRO PRIVADO BENÉFICO",21,"PRIVADO-BENÉFICO (IGLESIA)","N","N","N","N","S",NA,"S","fisj@ohsjd.es",0,0,0,0,0,0,0,0,0,0,0,0,0,-3.77517007699993,40.361935944,"PointAddress","07","Centro-Oeste"
"1328000057","280323","SANATORIO NUESTRA SEÑORA DEL ROSARIO","CALLE DEL PRINCIPE DE VERGARA 53","914359100","280796","Madrid","28","MADRID","13","MADRID","28006",165,"C11","Hospitales Generales","20","PRIVADOS","N",NA,NA,"N","S.ROSARIO@FUTURMET.ES",489,"SANATORIO NUESTRA SEÑORA DEL ROSARIO","PRÍNCIPE DE VERGARA, 53",914359100,NA,915761800,"280796","Madrid","28","MADRID","13","MADRID","28006",1,"GENERAL",12,"PRIVADO-BENÉFICO (IGLESIA)",21,"PRIVADO-BENÉFICO (IGLESIA)","N","N","N","N","S",NA,"N","secretaria@hospitalrosario.com",1,3,0,1,0,0,0,0,0,0,2,1,0,-3.67959715599994,40.4319981580001,"PointAddress","02","Centro-Norte"
"1328019438","280724","HOSPITAL CENTRAL DE LA DEFENSA GOMEZ ULLA","GLORIETA DEL EJERCITO S/N","914222000","280796","Madrid","28","MADRID","13","MADRID","28047",475,"C11","Hospitales Generales","7","MINISTERIO DE DEFENSA","N",NA,NA,"N",NA,515,"HOSPITAL CENTRAL DE LA DEFENSA GOMEZ ULLA","GLORIETA DEL EJÉRCITO, Nº 1",914222000,NA,914228201,"280796","Madrid","28","MADRID","13","MADRID","28047",1,"GENERAL",5,"MINISTERIO DE DEFENSA",25,"MINISTERIO DE DEFENSA","S","N","N","N","S",NA,"S","hcdgomezulla@oc.mde.es",2,2,0,2,1,1,0,2,1,0,1,1,24,-3.74552932899996,40.3879055130001,"PointAddress","07","Centro-Oeste"
"1328000023","280127","HOSPITAL UNIVERSITARIO DE LA PRINCESA","CALLE DE DIEGO DE LEON 62","915202200","280796","Madrid","28","MADRID","13","MADRID","28006",524,"C11","Hospitales Generales","2","SERVICIOS E INSTITUTOS DE SALUD DE LAS COMUNIDADES AUTÓNOMAS","N",NA,NA,"N",NA,480,"HOSPITAL UNIVERSITARIO DE LA PRINCESA","DIEGO DE LEÓN, 62",915202200,915202501,914021169,"280796","Madrid","28","MADRID","13","MADRID","28006",1,"GENERAL",6,"COMUNIDAD AUTÓNOMA",34,"SERVICIO MADRILEÑO DE SALUD","S","N","N","N","S",NA,"N","gencia.hlpr@salud.madrid.org",3,2,0,2,2,0,0,2,1,0,1,1,24,-3.67574555799996,40.434030944,"Manual","02","Centro-Norte"
"1328000017","280035","HOSPITAL UNIVERSITARIO 12 DE OCTUBRE","AVENIDA DE CORDOBA S/N","913908000","280796","Madrid","28","MADRID","13","MADRID","28041",1196,"C11","Hospitales Generales","2","SERVICIOS E INSTITUTOS DE SALUD DE LAS COMUNIDADES AUTÓNOMAS","N",NA,NA,"N",NA,476,"HOSPITAL UNIVERSITARIO 12 DE OCTUBRE","AV. DE CÓRDOBA, S/N",913908373,NA,913908582,"280796","Madrid","28","MADRID","13","MADRID","28041",1,"GENERAL",1,"SEGURIDAD SOCIAL",34,"SERVICIO MADRILEÑO DE SALUD","S","N","N","N","S",NA,"N","gerent.hdoc@salud.madrid.org",6,5,2,3,2,1,0,3,3,1,3,2,43,-3.69897211499995,40.3760856100001,"Manual","11","Sur Ii"
"1328000039","280029","HOSPITAL UNIVERSITARIO RAMON Y CAJAL","CARRETERA DE COLMENAR VIEJO KM.9,1","913368000","280796","Madrid","28","MADRID","13","MADRID","28034",857,"C11","Hospitales Generales","2","SERVICIOS E INSTITUTOS DE SALUD DE LAS COMUNIDADES AUTÓNOMAS","N",NA,NA,"N",NA,475,"HOSPITAL RAMON Y CAJAL","CTRA. DE COLMENAR VIEJO, KM. 9,1",913368000,NA,913580614,"280796","Madrid","28","MADRID","13","MADRID","28034",1,"GENERAL",1,"SEGURIDAD SOCIAL",34,"SERVICIO MADRILEÑO DE SALUD","S","N","N","N","S",NA,"N","gencia.hrc@salud.madrid.org",4,3,4,3,2,1,0,2,0,1,3,2,28,-3.69383854899996,40.487352537,"Manual","05","Norte"
"1328000083","281304","EMPRESA PUBLICA HOSPITAL DEL SUR HOSPITAL INFANTA CRISTINA","PASEO CASTELLANA 83","911913000","280796","Madrid","28","MADRID","13","MADRID","28046",188,"C11","Hospitales Generales","2","SERVICIOS E INSTITUTOS DE SALUD DE LAS COMUNIDADES AUTÓNOMAS","N",NA,NA,"N",NA,552,"HOSPITAL UNIVERSITARIO INFANTA CRISTINA","AV. 9 DE JUNIO, 2",911913500,911913332,911913960,"281065","Parla","28","MADRID","13","MADRID","28981",1,"GENERAL",6,"COMUNIDAD AUTÓNOMA",34,"SERVICIO MADRILEÑO DE SALUD","S","N","N","N","N",NA,"N","gerencia.hsur@salud.madrid.org",1,1,0,0,0,0,0,0,0,0,1,0,16,-3.78302070099994,40.218255292,"Manual","10","Sur I"
"1328000036","280262","HOSPITAL PSIQUIATRICO DOCTOR RODRIGUEZ LAFORA","CARRETERA DE COLMENAR VIEJO K.13,8","915867500","280796","Madrid","28","MADRID","13","MADRID","28049",334,"C14","Hospitales de salud mental y tratamiento de toxicomanías","2","SERVICIOS E INSTITUTOS DE SALUD DE LAS COMUNIDADES AUTÓNOMAS","N",NA,NA,"N",NA,488,"HOSPITAL DR. R. LAFORA","CTRA. DE COLMENAR VIEJO, KM. 13,8",915867500,NA,915867391,"280796","Madrid","28","MADRID","13","MADRID","28049",6,"PSIQUIÁTRICO",6,"COMUNIDAD AUTÓNOMA",34,"SERVICIO MADRILEÑO DE SALUD","S","N","N","N","S",NA,"N","gerent.hlafora@salud.madrid.org",0,0,0,0,0,0,0,0,0,0,0,0,0,-3.69124082199994,40.5319545460001,"Manual","05","Norte"
"1328000028","280133","HOSPITAL INFANTIL UNIVERSITARIO NIÑO JESUS","AVENIDA DE MENENDEZ PELAYO 65","915035900","280796","Madrid","28","MADRID","13","MADRID","28009",170,"C12","Hospitales especializados","2","SERVICIOS E INSTITUTOS DE SALUD DE LAS COMUNIDADES AUTÓNOMAS","N",NA,NA,"N",NA,481,"HOSPITAL INFANTIL UNIVERSITARIO NIÑO JESUS","AV. MENÉNDEZ PELAYO, 65",915035900,NA,915733546,"280796","Madrid","28","MADRID","13","MADRID","28009",4,"INFANTIL",6,"COMUNIDAD AUTÓNOMA",34,"SERVICIO MADRILEÑO DE SALUD","S","N","N","N","S",NA,"N","gerent.hnjs@salud.madrid.org",1,1,0,0,0,0,0,0,0,0,0,0,0,-3.67608902999996,40.4143571160001,"Manual","01","Sur-Este"
"1328000041","280112","HOSPITAL UNIVERSITARIO SANTA CRISTINA","CALLE DE O'DONNELL 59","915574300","280796","Madrid","28","MADRID","13","MADRID","28009",156,"C11","Hospitales Generales","2","SERVICIOS E INSTITUTOS DE SALUD DE LAS COMUNIDADES AUTÓNOMAS","N",NA,NA,"N",NA,479,"HOSPITAL UNIVERSITARIO SANTA CRISTINA","MAESTRO VIVES, 2",915574300,NA,915574400,"280796","Madrid","28","MADRID","13","MADRID","28009",1,"GENERAL",1,"SEGURIDAD SOCIAL",34,"SERVICIO MADRILEÑO DE SALUD","N","N","N","N","S",NA,"N","gencia.hscr@salud.madrid.org",1,0,0,0,0,0,0,0,0,0,1,1,0,-3.67099294399998,40.4217986,"Manual","02","Centro-Norte"
"1328000043","280072","HOSPITAL UNIVERSITARIO CLINICO SAN CARLOS","CALLE DEL PROFESOR MARTIN LAGOS S/N","913303000","280796","Madrid","28","MADRID","13","MADRID","28040",861,"C11","Hospitales Generales","2","SERVICIOS E INSTITUTOS DE SALUD DE LAS COMUNIDADES AUTÓNOMAS","N",NA,NA,"N","MAHCSCGC@INSALUD.ES",477,"HOSPITAL CLINICO SAN CARLOS","PROF. MARTÍN LAGOS, S/N",913303000,NA,913303257,"280796","Madrid","28","MADRID","13","MADRID","28040",1,"GENERAL",1,"SEGURIDAD SOCIAL",34,"SERVICIO MADRILEÑO DE SALUD","S","N","N","N","S",NA,"N","gerent.hcsc@salud.madrid.org",3,3,3,3,3,0,0,2,2,1,4,2,15,-3.71993244699996,40.4406569450001,"Manual","07","Centro-Oeste"
"1328000031","280014","HOSPITAL UNIVERSITARIO LA PAZ","PASEO DE LA CASTELLANA 261","917277000","280796","Madrid","28","MADRID","13","MADRID","28046",1044,"C11","Hospitales Generales","2","SERVICIOS E INSTITUTOS DE SALUD DE LAS COMUNIDADES AUTÓNOMAS","S","281168","Complejo Hospitalario La Paz","N",NA,474,"HOSPITAL UNIVERSITARIO LA PAZ","Pº DE LA CASTELLANA, 261",917277000,NA,913584699,"280796","Madrid","28","MADRID","13","MADRID","28046",1,"GENERAL",1,"SEGURIDAD SOCIAL",34,"SERVICIO MADRILEÑO DE SALUD","S","N","S","N","S",NA,"N","gencia.hulp@salud.madrid.org",0,0,0,0,0,0,0,0,0,0,0,0,0,-3.68590964099997,40.480424183,"PointAddress","05","Norte"
"1328000027","280246","HOSPITAL GENERAL UNIVERSITARIO GREGORIO MARAÑON","CALLE DEL DOCTOR ESQUERDO 46","915868000","280796","Madrid","28","MADRID","13","MADRID","28009",1143,"C11","Hospitales Generales","2","SERVICIOS E INSTITUTOS DE SALUD DE LAS COMUNIDADES AUTÓNOMAS","S","280225","Complejo Hospitalario Gregorio Marañón","N","AMACHO@PGOB.HGGM.ES",486,"HOSPITAL GENERAL UNIVERSITARIO GREGORIO MARAÑON","DR ESQUERDO, 46",915868000,915868017,915868018,"280796","Madrid","28","MADRID","13","MADRID","28007",1,"GENERAL",6,"COMUNIDAD AUTÓNOMA",34,"SERVICIO MADRILEÑO DE SALUD","S","N","S","N","S",NA,"N",NA,0,0,0,0,0,0,0,0,0,0,0,0,0,-3.67113352499996,40.419369772,"Manual","02","Centro-Norte"
"1328000019","280210","HOSPITAL DE CANTOBLANCO","CARRETERA DE COLMENAR VIEJO K.14,8","915867575","280796","Madrid","28","MADRID","13","MADRID","28049",131,"C11","Hospitales Generales","2","SERVICIOS E INSTITUTOS DE SALUD DE LAS COMUNIDADES AUTÓNOMAS","S","281168","Complejo Hospitalario La Paz","N",NA,484,"HOSPITAL CANTOBLANCO","CTRA. DE COLMENAR VIEJO, KM. 14,5",917277000,NA,913584699,"280796","Madrid","28","MADRID","13","MADRID","28049",1,"GENERAL",6,"COMUNIDAD AUTÓNOMA",34,"SERVICIO MADRILEÑO DE SALUD","N","N","S","N","S",NA,"N","gencia.hulp@salud.madrid.org",0,0,0,0,0,0,0,0,0,0,0,0,0,-3.69331286299996,40.539305132,"Manual","05","Norte"
"1328000016","280164","HOSPITAL CARLOS III","CALLE DE SINESIO DELGADO 8-10","914532500","280796","Madrid","28","MADRID","13","MADRID","28029",95,"C190","Otros Centros con Internamiento","2","SERVICIOS E INSTITUTOS DE SALUD DE LAS COMUNIDADES AUTÓNOMAS","S","281168","Complejo Hospitalario La Paz","N",NA,483,"HOSPITAL CARLOS III","SINESIO DELGADO, 8-10",917277000,NA,913584699,"280796","Madrid","28","MADRID","13","MADRID","28029",1,"GENERAL",6,"COMUNIDAD AUTÓNOMA",34,"SERVICIO MADRILEÑO DE SALUD","S","N","S","N","S",NA,"N","gencia.hulp@salud.madrid.org",0,0,0,0,0,0,0,0,0,0,0,0,0,-3.69623007399997,40.475147959,"Manual","05","Norte"
"1328000086","281270","HOSPITAL UNIVERSITARIO INFANTA LEONOR","AVENIDA DE LA GRAN VIA DEL ESTE 80","911918000","280796","Madrid","28","MADRID","13","MADRID","28031",269,"C11","Hospitales Generales","2","SERVICIOS E INSTITUTOS DE SALUD DE LAS COMUNIDADES AUTÓNOMAS","S","281405","Complejo Hospitalario Infanta Leonor","N",NA,549,"HOSPITAL UNIVERSITARIO INFANTA LEONOR","GRAN VÍA DEL ESTE, 80",911918000,NA,911919077,"280796","Madrid","28","MADRID","13","MADRID","28031",1,"GENERAL",6,"COMUNIDAD AUTÓNOMA",34,"SERVICIO MADRILEÑO DE SALUD","S","N","S","N","S",NA,"N","gerencia.hvll@salud.madrid.org",0,0,0,0,0,0,0,0,0,0,0,0,0,-3.61770841499992,40.386418674,"Manual","01","Sur-Este"
"1328000048","280259","INSTITUTO PROVINCIAL DE REHABILITACION","CALLE DE FRANCISCO SILVELA 40","915868967","280796","Madrid","28","MADRID","13","MADRID","28028",96,"C12","Hospitales especializados","2","SERVICIOS E INSTITUTOS DE SALUD DE LAS COMUNIDADES AUTÓNOMAS","S","280225","Complejo Hospitalario Gregorio Marañón","N",NA,487,"INSTITUTO PROVINCIAL DE REHABILITACION","FRANCISCO SILVELA, 40",915868967,NA,915868996,"280796","Madrid","28","MADRID","13","MADRID","28028",13,"GERIATRÍA Y/O LARGA ESTANCIA",6,"COMUNIDAD AUTÓNOMA",34,"SERVICIO MADRILEÑO DE SALUD","S","N","S","N","S",NA,"N",NA,0,0,0,0,0,0,0,0,0,0,0,0,0,-3.67288676899994,40.4330144560001,"Manual","02","Centro-Norte"
"1328000044","280091","HOSPITAL VIRGEN DE LA TORRE","CALLE DEL PUERTO DE LUMBRERAS 5","913315814","280796","Madrid","28","MADRID","13","MADRID","28031",92,"C13","Hospitales de media y larga estancia","2","SERVICIOS E INSTITUTOS DE SALUD DE LAS COMUNIDADES AUTÓNOMAS","S","281405","Complejo Hospitalario Infanta Leonor","N",NA,478,"HOSPITAL VIRGEN DE LA TORRE","PUERTO LUMBRERAS, 5",911918883,NA,911919895,"280796","Madrid","28","MADRID","13","MADRID","28031",14,"OTROS MONOGRÁFICOS",1,"SEGURIDAD SOCIAL",34,"SERVICIO MADRILEÑO DE SALUD","N","N","S","N","S",NA,"N","gerencia.hvll@salud.madrid.org",0,0,0,0,0,0,0,0,0,0,0,0,0,-3.61929255299998,40.381025902,"Manual","01","Sur-Este"
"1328000020","280148","HOSPITAL CENTRAL DE LA CRUZ ROJA, SAN JOSE Y SANTA ADELA","AVENIDA DE LA REINA VICTORIA 22-26","914538300","280796","Madrid","28","MADRID","13","MADRID","28003",156,"C190","Otros Centros con Internamiento","2","SERVICIOS E INSTITUTOS DE SALUD DE LAS COMUNIDADES AUTÓNOMAS","N",NA,NA,"N",NA,482,"HOSPITAL CENTRAL DE LA CRUZ ROJA SAN JOSE Y SANTA ADELA","AV. DE LA REINA VICTORIA, 22-24",914538300,NA,915330515,"280796","Madrid","28","MADRID","13","MADRID","28003",1,"GENERAL",11,"PRIVADO-BENÉFICO (CRUZ ROJA)",34,"SERVICIO MADRILEÑO DE SALUD","S","N","N","N","S",NA,"N","gerent.hccruzr@salud.madrid.org",1,0,1,0,0,0,0,0,0,0,1,0,0,-3.70693215899996,40.447152471,"PointAddress","05","Norte"
"1328000001","280856","FREMAP HOSPITAL MAJADAHONDA","CARRETERA M-515 (POZUELO) 61","917461540","280800","Majadahonda","28","MADRID","13","MADRID","28220",116,"C12","Hospitales especializados","21","MÚTUAS COLABORADORAS CON LA SEGURIDAD SOCIAL","N",NA,NA,"N","IGNACIO_LORENZO@FREMAP.ES",524,"FREMAP HOSPITAL Y CENTRO DE REHABILITACION DE MAJADAHONDA","CTRA. DE POZUELO, 61",916265642,916265279,916392607,"280800","Majadahonda","28","MADRID","13","MADRID","28222",10,"TRAUMATOLOGÍA Y/O REHABILITACIÓN",10,"MATEP",19,"MATEP","S","N","N","N","N",NA,"N","braulio_garrido@fremap.es",1,2,0,0,0,0,0,0,0,0,0,0,0,-3.85132607899993,40.452236896,"StreetAddress","06","Oeste"
"1328000087","281315","HOSPITAL UNIVERSITARIO PUERTA DE HIERRO MAJADAHONDA","CALLE MANUEL DE FALLA 1","911916000","280800","Majadahonda","28","MADRID","13","MADRID","28222",613,"C11","Hospitales Generales","2","SERVICIOS E INSTITUTOS DE SALUD DE LAS COMUNIDADES AUTÓNOMAS","N",NA,NA,"N",NA,553,"HOSPITAL UNIVERSITARIO PUERTA DE HIERRO MAJADAHONDA","JOAQUÍN RODRIGO, 2",911916000,911916468,913734661,"280800","Majadahonda","28","MADRID","13","MADRID","28222",1,"GENERAL",6,"COMUNIDAD AUTÓNOMA",34,"SERVICIO MADRILEÑO DE SALUD","S","N","N","N","N",NA,"N","gerent.hpth@salud.madrid.org",3,3,0,2,3,1,0,4,4,1,2,1,31,-3.87375168899996,40.4501393560001,"Manual","06","Oeste"
"1328016888","281360","HOSPITAL UNIVERSITARIO HM PUERTA DEL SUR","AVENIDA DE CARLOS V 70","000000000","280920","Móstoles","28","MADRID","13","MADRID","28938",182,"C11","Hospitales Generales","20","PRIVADOS","N",NA,NA,"N",NA,558,"HM UNIVERSITARIO PUERTA DEL SUR","AVENIDA DE CARLOS V, 70",912673100,NA,912673193,"280920","Móstoles","28","MADRID","13","MADRID","28938",1,"GENERAL",14,"PRIVADO NO BENÉFICO",23,"PRIVADO NO BENÉFICO","S","N","N","N","N",NA,"S","sruizdeaguiar@hmhospitales.com",2,3,1,1,1,0,0,2,1,1,1,0,0,-3.85685548899994,40.3144351110001,"StreetAddressExt","08","Sur-Oeste I"
"1328000026","280894","HOSPITAL UNIVERSITARIO DE MOSTOLES","CALLE RIO JUCAR S/N","916648600","280920","Móstoles","28","MADRID","13","MADRID","28935",328,"C11","Hospitales Generales","2","SERVICIOS E INSTITUTOS DE SALUD DE LAS COMUNIDADES AUTÓNOMAS","N",NA,NA,"N","SECREGER@CHM.ES",525,"HOSPITAL UNIVERSITARIO DE MOSTOLES","C/ DR. LUIS MONTES S/N (ANTIGUA C/ RÍO JÚCAR)",916648600,NA,916471917,"280920","Móstoles","28","MADRID","13","MADRID","28935",1,"GENERAL",1,"SEGURIDAD SOCIAL",34,"SERVICIO MADRILEÑO DE SALUD","S","N","N","N","N",NA,"N","gerent.hmtl@salud.madrid.org",1,2,0,0,0,0,0,0,0,0,2,0,0,-3.87753333599994,40.3158212770001,"Manual","08","Sur-Oeste I"
"1328000090","281348","HOSPITAL UNIVERSITARIO REY JUAN CARLOS","CALLE GLADIOLO S/N","000000000","280920","Móstoles","28","MADRID","13","MADRID","28933",382,"C11","Hospitales Generales","2","SERVICIOS E INSTITUTOS DE SALUD DE LAS COMUNIDADES AUTÓNOMAS","N",NA,NA,"N",NA,556,"HOSPITAL REY JUAN CARLOS","GLADIOLO S/N",914816225,NA,914816216,"280920","Móstoles","28","MADRID","13","MADRID","28933",1,"GENERAL",6,"COMUNIDAD AUTÓNOMA",34,"SERVICIO MADRILEÑO DE SALUD","S","N","N","N","N",NA,"N","info@hospitalreyjuancarlos.es",2,3,0,1,2,0,0,1,1,1,2,1,20,-3.87041195099994,40.3391962160001,"Manual","08","Sur-Oeste I"
"1328000076","281203","HOSPITAL UNIVERSITARIO QUIRONSALUD MADRID","CALLE DIEGO DE VELAZQUEZ 1","000000000","281150","Pozuelo de Alarcón","28","MADRID","13","MADRID","28223",278,"C11","Hospitales Generales","20","PRIVADOS","N",NA,NA,"N",NA,542,"HOSPITAL QUIRONSALUD MADRID","DIEGO DE VELAZQUEZ, 1",902151016,914521906,915183232,"281150","Pozuelo de Alarcón","28","MADRID","13","MADRID","28223",1,"GENERAL",14,"PRIVADO NO BENÉFICO",23,"PRIVADO NO BENÉFICO","S","N","N","N","N",NA,"S","direccion.mad@quironsalud.es",2,3,1,1,0,0,2,1,1,1,1,0,0,-3.78466211799997,40.4017819480001,"StreetAddressExt","06","Oeste"
"1328000021","280920","HOSPITAL EL ESCORIAL","CARRETERA DE M-600 (GUADARRAMA) KM.6,255","918973000","281317","San Lorenzo de El Escorial","28","MADRID","13","MADRID","28200",91,"C11","Hospitales Generales","2","SERVICIOS E INSTITUTOS DE SALUD DE LAS COMUNIDADES AUTÓNOMAS","N",NA,NA,"N",NA,526,"HOSPITAL EL ESCORIAL","CTRA. GUADARRAMA - SAN LORENZO DE EL ESCORIAL, KM. 6,2",918973000,NA,918973005,"281317","San Lorenzo de El Escorial","28","MADRID","13","MADRID","28200",1,"GENERAL",6,"COMUNIDAD AUTÓNOMA",34,"SERVICIO MADRILEÑO DE SALUD","S","N","N","N","N",NA,"N","hospitalelescorial.h@salud.madrid.org",1,1,0,0,0,0,0,0,0,0,1,0,0,-4.11955033899994,40.6074541610001,"Manual","06","Oeste"
"1328000082","281258","HOSPITAL UNIVERSITARIO INFANTA SOFIA","PASEO EUROPA 34","911914000","281343","San Sebastián de los Reyes","28","MADRID","13","MADRID","28702",276,"C11","Hospitales Generales","2","SERVICIOS E INSTITUTOS DE SALUD DE LAS COMUNIDADES AUTÓNOMAS","N",NA,NA,"N",NA,547,"HOSPITAL UNIVERSITARIO INFANTA SOFIA","PASEO DE EUROPA,32",911914000,911914075,911915017,"281343","San Sebastián de los Reyes","28","MADRID","13","MADRID","28702",1,"GENERAL",6,"COMUNIDAD AUTÓNOMA",34,"SERVICIO MADRILEÑO DE SALUD","S","N","N","N","N",NA,"N","gerencia.huis@salud.madrid.org",1,2,0,0,1,0,0,0,0,0,2,1,21,-3.61059588599994,40.5578023210001,"Manual","05","Norte"
"1328000089","281337","HOSPITAL UNIVERSITARIO DE TORREJON","CALLE MATEO INURRIA 1","000000000","281489","Torrejón de Ardoz","28","MADRID","13","MADRID","28850",250,"C11","Hospitales Generales","2","SERVICIOS E INSTITUTOS DE SALUD DE LAS COMUNIDADES AUTÓNOMAS","N",NA,NA,"N",NA,555,"HOSPITAL UNIVERSITARIO DE TORREJON","MATEO INURRIA, S/N",916262518,NA,914886624,"281489","Torrejón de Ardoz","28","MADRID","13","MADRID","28850",1,"GENERAL",6,"COMUNIDAD AUTÓNOMA",34,"SERVICIO MADRILEÑO DE SALUD","S","N","N","N","N",NA,"N","gerencia@torrejonsalud.com",3,2,0,1,1,0,0,2,0,0,1,1,22,-3.43651467899997,40.465047826,"Manual","03","Este"
"1328000072","281157","HOSPITAL UNIVERSITARIO HM TORRELODONES","AVENIDA CASTILLO DE OLIVARES S/N","912675000","281527","Torrelodones","28","MADRID","13","MADRID","28250",86,"C11","Hospitales Generales","20","PRIVADOS","N",NA,NA,"N",NA,538,"HOSPITAL UNIVERSITARIO HM TORRELODONES","AV. CASTILLO OLIVARES S/N",912675000,912675062,918591555,"281527","Torrelodones","28","MADRID","13","MADRID","28250",1,"GENERAL",14,"PRIVADO NO BENÉFICO",23,"PRIVADO NO BENÉFICO","S","N","N","N","N",NA,"S","mvillarinop@hmhospitales.com",1,2,0,0,0,0,0,0,0,0,1,0,0,-3.92559737499994,40.570491744,"StreetName","06","Oeste"
"1328000080","281236","HOSPITAL UNIVERSITARIO INFANTA ELENA","AVENIDA REYES CATOLICOS 21","000000000","281610","Valdemoro","28","MADRID","13","MADRID","28342",182,"C11","Hospitales Generales","2","SERVICIOS E INSTITUTOS DE SALUD DE LAS COMUNIDADES AUTÓNOMAS","N",NA,NA,"N",NA,545,"HOSPITAL UNIVERSITARIO INFANTA ELENA","AV. DE LOS REYES CATÓLICOS, 21",918948410,918948540,918948538,"281610","Valdemoro","28","MADRID","13","MADRID","28342",1,"GENERAL",6,"COMUNIDAD AUTÓNOMA",34,"SERVICIO MADRILEÑO DE SALUD","S","N","N","N","N",NA,"N","sonia.gonzalez@quironsalud.es",1,2,0,1,1,0,0,0,0,0,1,1,17,-3.69744306799993,40.1988414420001,"Manual","11","Sur Ii"
"1328000035","280936","HOSPITAL VIRGEN DE LA POVEDA","CARRETERA M-952 (ACCESO AL HOSPITAL) KM.5","918608000","281718","Villa del Prado","28","MADRID","13","MADRID","28630",202,"C13","Hospitales de media y larga estancia","2","SERVICIOS E INSTITUTOS DE SALUD DE LAS COMUNIDADES AUTÓNOMAS","N",NA,NA,"N",NA,527,"HOSPITAL VIRGEN DE LA POVEDA","CTRA. DEL HOSPITAL, S/N KM. 5",918608000,NA,918620100,"281718","Villa del Prado","28","MADRID","13","MADRID","28630",13,"GERIATRÍA Y/O LARGA ESTANCIA",6,"COMUNIDAD AUTÓNOMA",34,"SERVICIO MADRILEÑO DE SALUD","N","N","N","N","N",NA,"N","gerenciahvpo@salud.madrid.org",0,0,0,0,0,0,0,0,0,0,0,0,0,-4.27627727299995,40.2477761910001,"Manual","08","Sur-Oeste I"
